[{"OBJECT_NAME":"UNISAT-7","OBJECT_ID":"2021-022P","EPOCH":"2026-03-09T16:28:31.560096","MEAN_MOTION":15.37617151,"ECCENTRICITY":0.00117035,"INCLINATION":97.3969,"RA_OF_ASC_NODE":332.7353,"ARG_OF_PERICENTER":74.8463,"MEAN_ANOMALY":285.4075,"EPHEMERIS_TYPE":0,"CLASSIFICATION_TYPE":"U","NORAD_CAT_ID":47945,"ELEMENT_SET_NO":999,"REV_AT_EPOCH":27455,"BSTAR":0.000470835,"MEAN_MOTION_DOT":0.00017358,"MEAN_MOTION_DDOT":0},{"OBJECT_NAME":"OBJECT C","OBJECT_ID":"2024-153C","EPOCH":"2026-03-09T22:45:52.192800","MEAN_MOTION":15.36401606,"ECCENTRICITY":0.00103806,"INCLINATION":97.6622,"RA_OF_ASC_NODE":206.7519,"ARG_OF_PERICENTER":145.6814,"MEAN_ANOMALY":214.5102,"EPHEMERIS_TYPE":0,"CLASSIFICATION_TYPE":"U","NORAD_CAT_ID":60747,"ELEMENT_SET_NO":999,"REV_AT_EPOCH":8488,"BSTAR":0.0009101215,"MEAN_MOTION_DOT":0.00032382,"MEAN_MOTION_DDOT":0}]
